{
    "links": {
        "self": "http://www.neowsapp.com/rest/v1/neo/3795098?api_key=iIulBulltgU6a56xZRHN4H3l9WmuAYTsLGpBGhQ2"
    },
    "id": "3795098",
    "neo_reference_id": "3795098",
    "name": "(2017 YY5)",
    "designation": "2017 YY5",
    "nasa_jpl_url": "http://ssd.jpl.nasa.gov/sbdb.cgi?sstr=3795098",
    "absolute_magnitude_h": 22.8,
    "estimated_diameter": {
        "kilometers": {
            "estimated_diameter_min": 0.0732073989,
            "estimated_diameter_max": 0.1636967205
        },
        "meters": {
            "estimated_diameter_min": 73.2073989347,
            "estimated_diameter_max": 163.696720474
        },
        "miles": {
            "estimated_diameter_min": 0.0454889547,
            "estimated_diameter_max": 0.1017163949
        },
        "feet": {
            "estimated_diameter_min": 240.181762721,
            "estimated_diameter_max": 537.0627483999
        }
    },
    "is_potentially_hazardous_asteroid": false,
    "close_approach_data": [
        {
            "close_approach_date": "2017-12-16",
            "close_approach_date_full": "2017-Dec-16 07:55",
            "epoch_date_close_approach": 1513410900000,
            "relative_velocity": {
                "kilometers_per_second": "11.2287840054",
                "kilometers_per_hour": "40423.6224193259",
                "miles_per_hour": "25117.6669416084"
            },
            "miss_distance": {
                "astronomical": "0.0522856751",
                "lunar": "20.3391276139",
                "kilometers": "7821825.626472037",
                "miles": "4860257.0711746306"
            },
            "orbiting_body": "Earth"
        }
    ],
    "orbital_data": {
        "orbit_id": "7",
        "orbit_determination_date": "2018-01-24 06:57:20",
        "first_observation_date": "2017-12-25",
        "last_observation_date": "2018-01-24",
        "data_arc_in_days": 30,
        "observations_used": 50,
        "orbit_uncertainty": "7",
        "minimum_orbit_intersection": ".00017296",
        "jupiter_tisserand_invariant": "3.175",
        "epoch_osculation": "2459000.5",
        "eccentricity": ".6280728753782049",
        "semi_major_axis": "2.457104141249337",
        "inclination": "8.499103625900487",
        "ascending_node_longitude": "93.00161146252722",
        "orbital_period": "1406.804577310214",
        "perihelion_distance": ".9138636781511712",
        "perihelion_argument": "324.6866284007738",
        "aphelion_distance": "4.000344604347504",
        "perihelion_time": "2459488.727734472905",
        "mean_anomaly": "235.0629709022559",
        "mean_motion": ".2558990820802657",
        "equinox": "J2000",
        "orbit_class": {
            "orbit_class_type": "APO",
            "orbit_class_description": "Near-Earth asteroid orbits which cross the Earth’s orbit similar to that of 1862 Apollo",
            "orbit_class_range": "a (semi-major axis) > 1.0 AU; q (perihelion) < 1.017 AU"
        }
    },
    "is_sentry_object": false
}